QIANFAN-181             
1 69398U 26124S   26162.96825719 -.01721525  00000+0 -87975+0 0  9993
2 69398  88.9980   2.6332 0029918 205.5368 154.4346 14.19519654  1073
QIANFAN-182             
1 69399U 26124T   26162.89641939 -.01709041  00000+0 -85567+0 0  9990
2 69399  88.9979   2.6409 0002713  94.4778 265.6722 14.20817595  1060
DTC TEST OBJECT A       
1 69472U 26128A   26163.15674568  .00019485  00000+0  28332-3 0  9994
2 69472  54.9940 328.2648 0008153 266.1412  93.8691 15.55813873   443
DTC TEST OBJECT B       
1 69473U 26128B   26162.70678550  .00028232  00000+0  40462-3 0  9998
2 69473  55.0027 330.3416 0008173 268.8601  91.1498 15.55972338   369
TJS-25                  
1 69474U 26129A   26162.48255804  .00007407  00000+0  19774-2 0  9990
2 69474  16.5302  30.5351 7751889 199.9639  91.9387  1.72502163    78
