OBJECT_NAME,OBJECT_ID,EPOCH,MEAN_MOTION,ECCENTRICITY,INCLINATION,RA_OF_ASC_NODE,ARG_OF_PERICENTER,MEAN_ANOMALY,EPHEMERIS_TYPE,CLASSIFICATION_TYPE,NORAD_CAT_ID,ELEMENT_SET_NO,REV_AT_EPOCH,BSTAR,MEAN_MOTION_DOT,MEAN_MOTION_DDOT
QIANFAN-181,2026-124S,2026-06-11T23:14:17.421216,14.19519654,.00299188,88.9980,2.6332,205.5368,154.4346,0,U,69398,999,107,-.87975294E+0,-.1721525E-1,0
QIANFAN-182,2026-124T,2026-06-11T21:30:50.635296,14.20817595,.00027132,88.9979,2.6409,94.4778,265.6722,0,U,69399,999,106,-.85567091E+0,-.1709041E-1,0
DTC TEST OBJECT A,2026-128A,2026-06-12T03:45:42.826752,15.55813873,.00081531,54.9940,328.2648,266.1412,93.8691,0,U,69472,999,44,.28332472E-3,.19485E-3,0
DTC TEST OBJECT B,2026-128B,2026-06-11T16:57:46.267200,15.55972338,.0008173,55.0027,330.3416,268.8601,91.1498,0,U,69473,999,36,.4046219E-3,.28232E-3,0
TJS-25,2026-129A,2026-06-11T11:34:53.014656,1.72502163,.7751889,16.5302,30.5351,199.9639,91.9387,0,U,69474,999,7,.19774E-2,.7407E-4,0
